NORAD_CAT_ID,OBJECT_NAME,OBJECT_TYPE,EPOCH,MEAN_MOTION,ECCENTRICITY,INCLINATION,RA_OF_ASC_NODE,ARG_OF_PERICENTER,MEAN_ANOMALY,BSTAR,MEAN_MOTION_DOT,MEAN_MOTION_DDOT,TLE_LINE0,TLE_LINE1,TLE_LINE2,SEMIMAJOR_AXIS,PERIOD,APOGEE,PERIGEE,DECAYED
54078.0,STARLINK-5138,PAYLOAD,2024-05-15 05:14:55,15.08873618,0.0001317,53.2184,62.5125,100.2938,259.8203,0.00025675,3.804e-05,0.0,0 STARLINK-5138,1 54078U 22136AD  24136.21869290  .00003804  00000-0  25675-3 0  9994,2 54078  53.2184  62.5125 0001317 100.2938 259.8203 15.08873618 87444,6917.778,95.435,540.554,538.732,0.0
54078.0,STARLINK-5138,PAYLOAD,2024-05-15 19:33:24,15.08844514,0.0001299,53.2184,59.836,82.5683,277.5456,-0.00031686,-5.328e-05,0.0,0 STARLINK-5138,1 54078U 22136AD  24136.81486128 -.00005328  00000-0 -31686-3 0  9999,2 54078  53.2184  59.8360 0001299  82.5683 277.5456 15.08844514 87532,6917.867,95.437,540.63,538.833,0.0
54078.0,STARLINK-5138,PAYLOAD,2024-05-15 22:44:10,15.08844889,0.0001306,53.2182,59.2411,89.4909,270.6233,-0.00029536,-4.986e-05,0.0,0 STARLINK-5138,1 54078U 22136AD  24136.94734030 -.00004986  00000-0 -29536-3 0  9991,2 54078  53.2182  59.2411 0001306  89.4909 270.6233 15.08844889 87078,6917.865,95.437,540.634,538.827,0.0
54078.0,STARLINK-5138,PAYLOAD,2024-05-16 11:27:14,15.08850156,0.0001107,53.2175,56.8596,66.8222,293.2887,-3.272e-05,-8.09e-06,0.0,0 STARLINK-5138,1 54078U 22136AD  24137.47725680 -.00000809  00000-0 -32720-4 0  9991,2 54078  53.2175  56.8596 0001107  66.8222 293.2887 15.08850156 87152,6917.849,95.437,540.48,538.949,0.0
54078.0,STARLINK-5138,PAYLOAD,2024-05-17 11:18:02,15.08835476,7.92e-05,53.2172,52.4022,80.0822,280.026,-4.1804e-05,-9.53e-06,0.0,0 STARLINK-5138,1 54078U 22136AD  24138.47086004 -.00000953  00000-0 -41804-4 0  9995,2 54078  53.2172  52.4022 0000792  80.0822 280.0260 15.08835476 87784,6917.894,95.438,540.307,539.211,0.0
54078.0,STARLINK-5138,PAYLOAD,2024-05-17 22:25:46,15.08816505,0.0001392,53.2169,50.3212,80.327,279.7879,-0.00016043,-2.839e-05,0.0,0 STARLINK-5138,1 54078U 22136AD  24138.93456044 -.00002839  00000-0 -16043-3 0  9992,2 54078  53.2169  50.3212 0001392  80.3270 279.7879 15.08816505 87373,6917.952,95.439,540.78,538.854,0.0
54078.0,STARLINK-5138,PAYLOAD,2024-05-18 11:08:50,15.088407,0.0001276,53.2172,47.9389,81.2055,278.9082,0.00020435,2.966e-05,0.0,0 STARLINK-5138,1 54078U 22136AD  24139.46446844  .00002966  00000-0  20435-3 0  9997,2 54078  53.2172  47.9389 0001276  81.2055 278.9082 15.08840700 87456,6917.878,95.438,540.626,538.861,0.0
54078.0,STARLINK-5138,PAYLOAD,2024-05-18 17:30:22,15.08844973,0.000127,53.2174,46.7504,80.3569,279.7566,0.00031924,4.797e-05,0.0,0 STARLINK-5138,1 54078U 22136AD  24139.72942829  .00004797  00000-0  31924-3 0  9999,2 54078  53.2174  46.7504 0001270  80.3569 279.7566 15.08844973 87977,6917.865,95.437,540.609,538.852,0.0
54078.0,STARLINK-5138,PAYLOAD,2024-05-18 22:16:31,15.08861583,0.0001579,53.2164,45.862,79.7853,280.3317,0.00056769,8.764e-05,0.0,0 STARLINK-5138,1 54078U 22136AD  24139.92814122  .00008764  00000-0  56769-3 0  9997,2 54078  53.2164  45.8620 0001579  79.7853 280.3317 15.08861583 87524,6917.814,95.436,540.772,538.587,0.0
54078.0,STARLINK-5138,PAYLOAD,2024-05-19 01:27:17,15.08872611,0.000142,53.2173,45.2667,91.3126,268.8029,0.00084249,0.00013158,0.0,0 STARLINK-5138,1 54078U 22136AD  24140.06061387  .00013158  00000-0  84249-3 0  9998,2 54078  53.2173  45.2667 0001420  91.3126 268.8029 15.08872611 88028,6917.781,95.435,540.628,538.663,0.0
54078.0,STARLINK-5138,PAYLOAD,2024-05-19 17:21:10,15.08833541,0.0001956,53.2184,42.2923,77.5972,282.5239,8.0277e-05,9.89e-06,0.0,0 STARLINK-5138,1 54078U 22136AD  24140.72303302  .00000989  00000-0  80277-4 0  9993,2 54078  53.2184  42.2923 0001956  77.5972 282.5239 15.08833541 88127,6917.9,95.438,541.118,538.412,0.0
54078.0,STARLINK-5138,PAYLOAD,2024-05-20 02:53:28,15.08836526,0.0001662,53.219,40.5054,93.7799,266.3383,-7.2209e-05,-1.437e-05,0.0,0 STARLINK-5138,1 54078U 22136AD  24141.12047171 -.00001437  00000-0 -72209-4 0  9994,2 54078  53.2190  40.5054 0001662  93.7799 266.3383 15.08836526 87700,6917.891,95.438,540.906,538.606,0.0
54078.0,STARLINK-5138,PAYLOAD,2024-05-20 20:22:43,15.0883562,0.0001631,53.2183,37.2378,95.4167,264.7011,-9.0069e-06,-4.31e-06,0.0,0 STARLINK-5138,1 54078U 22136AD  24141.84911610 -.00000431  00000-0 -90069-5 0  9999,2 54078  53.2183  37.2378 0001631  95.4167 264.7011 15.08835620 88297,6917.894,95.438,540.887,538.63,0.0
54078.0,STARLINK-5138,PAYLOAD,2024-05-21 02:44:15,15.08845378,0.0001744,53.2182,36.0461,88.0367,272.0825,0.00021311,3.106e-05,0.0,0 STARLINK-5138,1 54078U 22136AD  24142.11407098  .00003106  00000-0  21311-3 0  9992,2 54078  53.2182  36.0461 0001744  88.0367 272.0825 15.08845378 88332,6917.864,95.437,540.935,538.522,0.0
54078.0,STARLINK-5138,PAYLOAD,2024-05-21 20:13:30,15.08841914,0.0001714,53.2178,32.774,84.7718,275.347,0.00026603,3.949e-05,0.0,0 STARLINK-5138,1 54078U 22136AD  24142.84271826  .00003949  00000-0  26603-3 0  9994,2 54078  53.2178  32.7740 0001714  84.7718 275.3470 15.08841914 88446,6917.875,95.437,540.925,538.554,0.0
54078.0,STARLINK-5138,PAYLOAD,2024-05-21 21:48:53,15.08841721,0.000168,53.2178,32.4762,80.2199,279.8983,0.00026618,3.951e-05,0.0,0 STARLINK-5138,1 54078U 22136AD  24142.90895806  .00003951  00000-0  26618-3 0  9990,2 54078  53.2178  32.4762 0001680  80.2199 279.8983 15.08841721 87974,6917.875,95.437,540.902,538.578,0.0
54078.0,STARLINK-5138,PAYLOAD,2024-05-22 02:35:03,15.08845243,0.0001682,53.218,31.5839,83.5791,276.5393,0.00028912,4.317e-05,0.0,0 STARLINK-5138,1 54078U 22136AD  24143.10767506  .00004317  00000-0  28912-3 0  9994,2 54078  53.2180  31.5839 0001682  83.5791 276.5393 15.08845243 88005,6917.864,95.437,540.893,538.566,0.0
54078.0,STARLINK-5138,PAYLOAD,2024-05-22 20:04:17,15.08838271,0.0001678,53.2171,28.3115,102.0684,258.0496,-2.3205e-05,-6.57e-06,0.0,0 STARLINK-5138,1 54078U 22136AD  24143.83631828 -.00000657  00000-0 -23205-4 0  9997,2 54078  53.2171  28.3115 0001678 102.0684 258.0496 15.08838271 88595,6917.886,95.438,540.911,538.59,0.0
54078.0,STARLINK-5138,PAYLOAD,2024-05-22 21:39:41,15.08839316,0.0001724,53.2174,28.0144,97.9779,262.1409,-1.1711e-05,-4.74e-06,0.0,0 STARLINK-5138,1 54078U 22136AD  24143.90255788 -.00000474  00000-0 -11711-4 0  9998,2 54078  53.2174  28.0144 0001724  97.9779 262.1409 15.08839316 88126,6917.882,95.438,540.94,538.555,0.0
54078.0,STARLINK-5138,PAYLOAD,2024-05-23 02:25:50,15.08841726,0.0001671,53.2176,27.123,94.095,266.0233,2.8486e-05,1.65e-06,0.0,0 STARLINK-5138,1 54078U 22136AD  24144.10127682  .00000165  00000-0  28486-4 0  9994,2 54078  53.2176  27.1230 0001671  94.0950 266.0233 15.08841726 88153,6917.875,95.437,540.896,538.584,0.0
54078.0,STARLINK-5138,PAYLOAD,2024-05-23 21:30:27,15.08850342,0.0001568,53.2175,23.5546,96.2509,263.8662,6.5225e-05,7.5e-06,0.0,0 STARLINK-5138,1 54078U 22136AD  24144.89615045  .00000750  00000-0  65225-4 0  9997,2 54078  53.2175  23.5546 0001568  96.2509 263.8662 15.08850342 88752,6917.849,95.437,540.798,538.629,0.0
54078.0,STARLINK-5138,PAYLOAD,2024-05-24 14:59:42,15.08836107,0.0001527,53.218,20.2837,97.7003,262.4162,6.181e-05,6.96e-06,0.0,0 STARLINK-5138,1 54078U 22136AD  24145.62479782  .00000696  00000-0  61810-4 0  9990,2 54078  53.2180  20.2837 0001527  97.7003 262.4162 15.08836107 88387,6917.892,95.438,540.814,538.701,0.0
54078.0,STARLINK-5138,PAYLOAD,2024-05-24 21:21:14,15.08839082,0.000132,53.2171,19.0957,102.9417,257.1722,-9.623e-06,-4.41e-06,0.0,0 STARLINK-5138,1 54078U 22136AD  24145.88975572 -.00000441  00000-0 -96230-5 0  9991,2 54078  53.2171  19.0957 0001320 102.9417 257.1722 15.08839082 88901,6917.883,95.438,540.661,538.835,0.0
54078.0,STARLINK-5138,PAYLOAD,2024-05-25 08:28:57,15.08833685,0.0001104,53.2167,17.0172,96.2474,263.8644,-0.00011913,-2.183e-05,0.0,0 STARLINK-5138,1 54078U 22136AD  24146.35343827 -.00002183  00000-0 -11913-3 0  9994,2 54078  53.2167  17.0172 0001104  96.2474 263.8644 15.08833685 88495,6917.9,95.438,540.528,539.001,0.0
54078.0,STARLINK-5138,PAYLOAD,2024-05-25 21:12:01,15.08855443,0.0001357,53.2167,14.6325,130.3368,229.7743,-0.00023117,-3.967e-05,0.0,0 STARLINK-5138,1 54078U 22136AD  24146.88334992 -.00003967  00000-0 -23117-3 0  9995,2 54078  53.2167  14.6325 0001357 130.3368 229.7743 15.08855443 89050,6917.833,95.437,540.637,538.759,0.0
54078.0,STARLINK-5138,PAYLOAD,2024-05-25 22:47:25,15.08843844,0.0001145,53.2172,14.3418,89.5853,270.5271,-2.3249e-05,-6.58e-06,0.0,0 STARLINK-5138,1 54078U 22136AD  24146.94959683 -.00000658  00000-0 -23249-4 0  9993,2 54078  53.2172  14.3418 0001145  89.5853 270.5271 15.08843844 89068,6917.869,95.437,540.526,538.942,0.0
54078.0,STARLINK-5138,PAYLOAD,2024-05-26 21:02:49,15.08840184,0.0001248,53.2172,10.1807,53.6087,306.502,0.00023126,3.395e-05,0.0,0 STARLINK-5138,1 54078U 22136AD  24147.87696132  .00003395  00000-0  23126-3 0  9995,2 54078  53.2172  10.1807 0001248  53.6087 306.5020 15.08840184 89201,6917.88,95.438,540.608,538.881,0.0
54078.0,STARLINK-5138,PAYLOAD,2024-05-26 22:38:12,15.08841939,0.0001251,53.2175,9.8831,55.6042,304.5069,0.00023494,3.453e-05,0.0,0 STARLINK-5138,1 54078U 22136AD  24147.94320030  .00003453  00000-0  23494-3 0  9997,2 54078  53.2175   9.8831 0001251  55.6042 304.5069 15.08841939 88730,6917.874,95.437,540.605,538.874,0.0
54078.0,STARLINK-5138,PAYLOAD,2024-05-27 14:32:03,15.08840448,0.0001143,53.2178,6.9125,75.6538,284.4581,0.00017355,2.475e-05,0.0,0 STARLINK-5138,1 54078U 22136AD  24148.60560178  .00002475  00000-0  17355-3 0  9992,2 54078  53.2178   6.9125 0001143  75.6538 284.4581 15.08840448 88839,6917.879,95.438,540.535,538.953,0.0
54078.0,STARLINK-5138,PAYLOAD,2024-05-27 20:53:36,15.08844511,0.0001664,53.2188,5.7212,64.2657,295.8507,0.00012066,1.633e-05,0.0,0 STARLINK-5138,1 54078U 22136AD  24148.87056220  .00001633  00000-0  12066-3 0  9998,2 54078  53.2188   5.7212 0001664  64.2657 295.8507 15.08844511 88871,6917.867,95.437,540.883,538.58,0.0
